STARLINK-2190
1 28564C 21041M   21325.14409595 -.00001288  00000-0 -86308-4 0  3258
2 28564  53.0562 337.5884 0001478  51.5446  54.0845 15.06408903    16
